[{"OBJECT_NAME":"STARLINK-2569","OBJECT_ID":"2021-036B","EPOCH":"2026-03-10T00:00:02.999808","MEAN_MOTION":15.23820477,"ECCENTRICITY":0.00017097,"INCLINATION":53.129,"RA_OF_ASC_NODE":9.5309,"ARG_OF_PERICENTER":96.8785,"MEAN_ANOMALY":250.7742,"EPHEMERIS_TYPE":0,"CLASSIFICATION_TYPE":"U","NORAD_CAT_ID":48277,"ELEMENT_SET_NO":999,"REV_AT_EPOCH":574,"BSTAR":-0.0006504466,"MEAN_MOTION_DOT":-0.00016175,"MEAN_MOTION_DDOT":0},{"OBJECT_NAME":"AZUR (GRS A)","OBJECT_ID":"1969-097A","EPOCH":"2026-03-09T21:41:10.048992","MEAN_MOTION":15.2598686,"ECCENTRICITY":0.02451425,"INCLINATION":102.6572,"RA_OF_ASC_NODE":142.7505,"ARG_OF_PERICENTER":125.1196,"MEAN_ANOMALY":237.3267,"EPHEMERIS_TYPE":0,"CLASSIFICATION_TYPE":"U","NORAD_CAT_ID":4221,"ELEMENT_SET_NO":999,"REV_AT_EPOCH":71023,"BSTAR":0.0010311441,"MEAN_MOTION_DOT":0.00065195,"MEAN_MOTION_DDOT":0}]
